[{"OBJECT_NAME":"SMDC ONE 2.4","OBJECT_ID":"2013-072H","EPOCH":"2026-03-09T13:26:07.283328","MEAN_MOTION":15.15767863,"ECCENTRICITY":0.0137633,"INCLINATION":120.4883,"RA_OF_ASC_NODE":328.0945,"ARG_OF_PERICENTER":267.6479,"MEAN_ANOMALY":90.8828,"EPHEMERIS_TYPE":0,"CLASSIFICATION_TYPE":"U","NORAD_CAT_ID":39469,"ELEMENT_SET_NO":999,"REV_AT_EPOCH":10271,"BSTAR":0.00065974,"MEAN_MOTION_DOT":0.00015821,"MEAN_MOTION_DDOT":0},{"OBJECT_NAME":"STARLINK-30886","OBJECT_ID":"2023-171S","EPOCH":"2026-03-09T22:00:01.999584","MEAN_MOTION":15.22897038,"ECCENTRICITY":0.00015613,"INCLINATION":43.0007,"RA_OF_ASC_NODE":283.7757,"ARG_OF_PERICENTER":289.0985,"MEAN_ANOMALY":343.9345,"EPHEMERIS_TYPE":0,"CLASSIFICATION_TYPE":"U","NORAD_CAT_ID":58246,"ELEMENT_SET_NO":999,"REV_AT_EPOCH":577,"BSTAR":0.048414578,"MEAN_MOTION_DOT":0.01267662,"MEAN_MOTION_DDOT":0}]
